ORBCOMM FM16            
1 25417U 98046E   26062.15046801  .00001499  00000+0  51840-3 0  9990
2 25417  44.9947  22.2264 0002863 186.5898 173.4914 14.39811301441560
ORBCOMM FM15            
1 25418U 98046F   26060.94344064  .00000411  00000+0  17640-3 0  9991
2 25418  44.9980  33.9056 0002671 186.0202 174.0615 14.39427017441378
ORBCOMM FM14            
1 25419U 98046G   26062.06957453  .00001525  00000+0  52609-3 0  9990
2 25419  44.9966  25.9741 0001413 201.4331 158.6459 14.39870589441519
ORBCOMM FM13            
1 25420U 98046H   26062.00744504  .00001327  00000+0  47706-3 0  9999
2 25420  44.9982  36.9412 0003037 152.7795 207.3213 14.38426972440490
ORBCOMM FM21            
1 25475U 98053A   26062.15088023  .00000990  00000+0  37111-3 0  9994
2 25475  45.0072 122.5366 0000973 219.1007 140.9771 14.37997533434514
ORBCOMM FM22            
1 25476U 98053B   26062.19281346  .00001188  00000+0  42545-3 0  9999
2 25476  45.0062 114.9245 0001057 119.0607 241.0348 14.39220094434575
ORBCOMM FM23            
1 25477U 98053C   26062.18148288  .00001138  00000+0  41718-3 0  9992
2 25477  45.0073 124.0765 0000583 143.6412 216.4476 14.38258028434673
ORBCOMM FM24            
1 25478U 98053D   26062.14988420  .00001221  00000+0  43846-3 0  9996
2 25478  45.0070 120.4984 0000750 178.0502 182.0349 14.38903312434739
ORBCOMM FM25            
1 25479U 98053E   26062.19616501  .00001209  00000+0  43496-3 0  9997
2 25479  45.0060 118.5912 0002807 130.8484 229.2608 14.38867312435033
ORBCOMM FM26            
1 25480U 98053F   26062.10966490  .00000989  00000+0  37202-3 0  9997
2 25480  45.0061 117.4394 0005049 140.3853 219.7365 14.37804075434900
ORBCOMM FM27            
1 25481U 98053G   26062.10820907  .00001255  00000+0  44941-3 0  9995
2 25481  45.0046 119.1080 0001700 239.0722 120.9960 14.38910473434956
ORBCOMM FM28            
1 25482U 98053H   26062.04994288  .00001102  00000+0  39940-3 0  9997
2 25482  45.0057  56.5917 0003540 189.6981 170.3799 14.39007350435630
ORBCOMM FM30            
1 25980U 99065A   26062.00073916  .00000961  00000+0  36150-3 0  9998
2 25980  45.0317 304.0510 0005708 231.6061 128.4275 14.37965286371694
ORBCOMM FM31            
1 25981U 99065B   26061.98653302  .00000950  00000+0  35875-3 0  9999
2 25981  45.0229 297.5605 0003510 263.3192  96.7257 14.37888168371245
ORBCOMM FM32            
1 25982U 99065C   26062.06431784  .00001051  00000+0  39925-3 0  9991
2 25982  45.0162 315.4948 0005768 257.0431 102.9773 14.36950083371827
ORBCOMM FM33            
1 25983U 99065D   26061.66781053  .00001211  00000+0  41917-3 0  9996
2 25983  45.0272 209.3527 0008257 276.1151  83.8758 14.40767111373332
ORBCOMM FM36            
1 25984U 99065E   26062.03329932  .00001313  00000+0  46755-3 0  9991
2 25984  45.0394 303.4471 0002205 150.9487 209.1485 14.38961792371695
