[{"OBJECT_NAME":"ORBCOMM FM16","OBJECT_ID":"1998-046E","EPOCH":"2026-03-03T03:36:40.436064","MEAN_MOTION":14.39811301,"ECCENTRICITY":0.0002863,"INCLINATION":44.9947,"RA_OF_ASC_NODE":22.2264,"ARG_OF_PERICENTER":186.5898,"MEAN_ANOMALY":173.4914,"EPHEMERIS_TYPE":0,"CLASSIFICATION_TYPE":"U","NORAD_CAT_ID":25417,"ELEMENT_SET_NO":999,"REV_AT_EPOCH":44156,"BSTAR":0.0005184,"MEAN_MOTION_DOT":1.499e-5,"MEAN_MOTION_DDOT":0},{"OBJECT_NAME":"ORBCOMM FM15","OBJECT_ID":"1998-046F","EPOCH":"2026-03-01T22:38:33.271296","MEAN_MOTION":14.39427017,"ECCENTRICITY":0.0002671,"INCLINATION":44.998,"RA_OF_ASC_NODE":33.9056,"ARG_OF_PERICENTER":186.0202,"MEAN_ANOMALY":174.0615,"EPHEMERIS_TYPE":0,"CLASSIFICATION_TYPE":"U","NORAD_CAT_ID":25418,"ELEMENT_SET_NO":999,"REV_AT_EPOCH":44137,"BSTAR":0.0001764,"MEAN_MOTION_DOT":4.11e-6,"MEAN_MOTION_DDOT":0},{"OBJECT_NAME":"ORBCOMM FM14","OBJECT_ID":"1998-046G","EPOCH":"2026-03-03T01:40:11.239392","MEAN_MOTION":14.39870589,"ECCENTRICITY":0.0001413,"INCLINATION":44.9966,"RA_OF_ASC_NODE":25.9741,"ARG_OF_PERICENTER":201.4331,"MEAN_ANOMALY":158.6459,"EPHEMERIS_TYPE":0,"CLASSIFICATION_TYPE":"U","NORAD_CAT_ID":25419,"ELEMENT_SET_NO":999,"REV_AT_EPOCH":44151,"BSTAR":0.00052609,"MEAN_MOTION_DOT":1.525e-5,"MEAN_MOTION_DDOT":0},{"OBJECT_NAME":"ORBCOMM FM13","OBJECT_ID":"1998-046H","EPOCH":"2026-03-03T00:10:43.251456","MEAN_MOTION":14.38426972,"ECCENTRICITY":0.0003037,"INCLINATION":44.9982,"RA_OF_ASC_NODE":36.9412,"ARG_OF_PERICENTER":152.7795,"MEAN_ANOMALY":207.3213,"EPHEMERIS_TYPE":0,"CLASSIFICATION_TYPE":"U","NORAD_CAT_ID":25420,"ELEMENT_SET_NO":999,"REV_AT_EPOCH":44049,"BSTAR":0.00047706,"MEAN_MOTION_DOT":1.327e-5,"MEAN_MOTION_DDOT":0},{"OBJECT_NAME":"ORBCOMM FM21","OBJECT_ID":"1998-053A","EPOCH":"2026-03-03T03:37:16.051872","MEAN_MOTION":14.37997533,"ECCENTRICITY":9.73e-5,"INCLINATION":45.0072,"RA_OF_ASC_NODE":122.5366,"ARG_OF_PERICENTER":219.1007,"MEAN_ANOMALY":140.9771,"EPHEMERIS_TYPE":0,"CLASSIFICATION_TYPE":"U","NORAD_CAT_ID":25475,"ELEMENT_SET_NO":999,"REV_AT_EPOCH":43451,"BSTAR":0.00037111,"MEAN_MOTION_DOT":9.9e-6,"MEAN_MOTION_DDOT":0},{"OBJECT_NAME":"ORBCOMM FM22","OBJECT_ID":"1998-053B","EPOCH":"2026-03-03T04:37:39.082944","MEAN_MOTION":14.39220094,"ECCENTRICITY":0.0001057,"INCLINATION":45.0062,"RA_OF_ASC_NODE":114.9245,"ARG_OF_PERICENTER":119.0607,"MEAN_ANOMALY":241.0348,"EPHEMERIS_TYPE":0,"CLASSIFICATION_TYPE":"U","NORAD_CAT_ID":25476,"ELEMENT_SET_NO":999,"REV_AT_EPOCH":43457,"BSTAR":0.00042545,"MEAN_MOTION_DOT":1.188e-5,"MEAN_MOTION_DDOT":0},{"OBJECT_NAME":"ORBCOMM FM23","OBJECT_ID":"1998-053C","EPOCH":"2026-03-03T04:21:20.120832","MEAN_MOTION":14.38258028,"ECCENTRICITY":5.83e-5,"INCLINATION":45.0073,"RA_OF_ASC_NODE":124.0765,"ARG_OF_PERICENTER":143.6412,"MEAN_ANOMALY":216.4476,"EPHEMERIS_TYPE":0,"CLASSIFICATION_TYPE":"U","NORAD_CAT_ID":25477,"ELEMENT_SET_NO":999,"REV_AT_EPOCH":43467,"BSTAR":0.00041718,"MEAN_MOTION_DOT":1.138e-5,"MEAN_MOTION_DDOT":0},{"OBJECT_NAME":"ORBCOMM FM24","OBJECT_ID":"1998-053D","EPOCH":"2026-03-03T03:35:49.994880","MEAN_MOTION":14.38903312,"ECCENTRICITY":7.5e-5,"INCLINATION":45.007,"RA_OF_ASC_NODE":120.4984,"ARG_OF_PERICENTER":178.0502,"MEAN_ANOMALY":182.0349,"EPHEMERIS_TYPE":0,"CLASSIFICATION_TYPE":"U","NORAD_CAT_ID":25478,"ELEMENT_SET_NO":999,"REV_AT_EPOCH":43473,"BSTAR":0.00043846,"MEAN_MOTION_DOT":1.221e-5,"MEAN_MOTION_DDOT":0},{"OBJECT_NAME":"ORBCOMM FM25","OBJECT_ID":"1998-053E","EPOCH":"2026-03-03T04:42:28.656864","MEAN_MOTION":14.38867312,"ECCENTRICITY":0.0002807,"INCLINATION":45.006,"RA_OF_ASC_NODE":118.5912,"ARG_OF_PERICENTER":130.8484,"MEAN_ANOMALY":229.2608,"EPHEMERIS_TYPE":0,"CLASSIFICATION_TYPE":"U","NORAD_CAT_ID":25479,"ELEMENT_SET_NO":999,"REV_AT_EPOCH":43503,"BSTAR":0.00043496,"MEAN_MOTION_DOT":1.209e-5,"MEAN_MOTION_DDOT":0},{"OBJECT_NAME":"ORBCOMM FM26","OBJECT_ID":"1998-053F","EPOCH":"2026-03-03T02:37:55.047360","MEAN_MOTION":14.37804075,"ECCENTRICITY":0.0005049,"INCLINATION":45.0061,"RA_OF_ASC_NODE":117.4394,"ARG_OF_PERICENTER":140.3853,"MEAN_ANOMALY":219.7365,"EPHEMERIS_TYPE":0,"CLASSIFICATION_TYPE":"U","NORAD_CAT_ID":25480,"ELEMENT_SET_NO":999,"REV_AT_EPOCH":43490,"BSTAR":0.00037202,"MEAN_MOTION_DOT":9.89e-6,"MEAN_MOTION_DDOT":0},{"OBJECT_NAME":"ORBCOMM FM27","OBJECT_ID":"1998-053G","EPOCH":"2026-03-03T02:35:49.263648","MEAN_MOTION":14.38910473,"ECCENTRICITY":0.00017,"INCLINATION":45.0046,"RA_OF_ASC_NODE":119.108,"ARG_OF_PERICENTER":239.0722,"MEAN_ANOMALY":120.996,"EPHEMERIS_TYPE":0,"CLASSIFICATION_TYPE":"U","NORAD_CAT_ID":25481,"ELEMENT_SET_NO":999,"REV_AT_EPOCH":43495,"BSTAR":0.00044941,"MEAN_MOTION_DOT":1.255e-5,"MEAN_MOTION_DDOT":0},{"OBJECT_NAME":"ORBCOMM FM28","OBJECT_ID":"1998-053H","EPOCH":"2026-03-03T01:11:55.064832","MEAN_MOTION":14.3900735,"ECCENTRICITY":0.000354,"INCLINATION":45.0057,"RA_OF_ASC_NODE":56.5917,"ARG_OF_PERICENTER":189.6981,"MEAN_ANOMALY":170.3799,"EPHEMERIS_TYPE":0,"CLASSIFICATION_TYPE":"U","NORAD_CAT_ID":25482,"ELEMENT_SET_NO":999,"REV_AT_EPOCH":43563,"BSTAR":0.0003994,"MEAN_MOTION_DOT":1.102e-5,"MEAN_MOTION_DDOT":0},{"OBJECT_NAME":"ORBCOMM FM30","OBJECT_ID":"1999-065A","EPOCH":"2026-03-03T00:01:03.863424","MEAN_MOTION":14.37965286,"ECCENTRICITY":0.0005708,"INCLINATION":45.0317,"RA_OF_ASC_NODE":304.051,"ARG_OF_PERICENTER":231.6061,"MEAN_ANOMALY":128.4275,"EPHEMERIS_TYPE":0,"CLASSIFICATION_TYPE":"U","NORAD_CAT_ID":25980,"ELEMENT_SET_NO":999,"REV_AT_EPOCH":37169,"BSTAR":0.0003615,"MEAN_MOTION_DOT":9.61e-6,"MEAN_MOTION_DDOT":0},{"OBJECT_NAME":"ORBCOMM FM31","OBJECT_ID":"1999-065B","EPOCH":"2026-03-02T23:40:36.452928","MEAN_MOTION":14.37888168,"ECCENTRICITY":0.000351,"INCLINATION":45.0229,"RA_OF_ASC_NODE":297.5605,"ARG_OF_PERICENTER":263.3192,"MEAN_ANOMALY":96.7257,"EPHEMERIS_TYPE":0,"CLASSIFICATION_TYPE":"U","NORAD_CAT_ID":25981,"ELEMENT_SET_NO":999,"REV_AT_EPOCH":37124,"BSTAR":0.00035875,"MEAN_MOTION_DOT":9.5e-6,"MEAN_MOTION_DDOT":0},{"OBJECT_NAME":"ORBCOMM FM32","OBJECT_ID":"1999-065C","EPOCH":"2026-03-03T01:32:37.061376","MEAN_MOTION":14.36950083,"ECCENTRICITY":0.0005768,"INCLINATION":45.0162,"RA_OF_ASC_NODE":315.4948,"ARG_OF_PERICENTER":257.0431,"MEAN_ANOMALY":102.9773,"EPHEMERIS_TYPE":0,"CLASSIFICATION_TYPE":"U","NORAD_CAT_ID":25982,"ELEMENT_SET_NO":999,"REV_AT_EPOCH":37182,"BSTAR":0.00039925,"MEAN_MOTION_DOT":1.051e-5,"MEAN_MOTION_DDOT":0},{"OBJECT_NAME":"ORBCOMM FM33","OBJECT_ID":"1999-065D","EPOCH":"2026-03-02T16:01:38.829792","MEAN_MOTION":14.40767111,"ECCENTRICITY":0.0008257,"INCLINATION":45.0272,"RA_OF_ASC_NODE":209.3527,"ARG_OF_PERICENTER":276.1151,"MEAN_ANOMALY":83.8758,"EPHEMERIS_TYPE":0,"CLASSIFICATION_TYPE":"U","NORAD_CAT_ID":25983,"ELEMENT_SET_NO":999,"REV_AT_EPOCH":37333,"BSTAR":0.00041917,"MEAN_MOTION_DOT":1.211e-5,"MEAN_MOTION_DDOT":0},{"OBJECT_NAME":"ORBCOMM FM36","OBJECT_ID":"1999-065E","EPOCH":"2026-03-03T00:47:57.061248","MEAN_MOTION":14.38961792,"ECCENTRICITY":0.0002205,"INCLINATION":45.0394,"RA_OF_ASC_NODE":303.4471,"ARG_OF_PERICENTER":150.9487,"MEAN_ANOMALY":209.1485,"EPHEMERIS_TYPE":0,"CLASSIFICATION_TYPE":"U","NORAD_CAT_ID":25984,"ELEMENT_SET_NO":999,"REV_AT_EPOCH":37169,"BSTAR":0.00046755,"MEAN_MOTION_DOT":1.313e-5,"MEAN_MOTION_DDOT":0}]
